[{"OBJECT_NAME":"ONEWEB-0560","OBJECT_ID":"2023-004F","EPOCH":"2025-07-28T12:53:45.311136","MEAN_MOTION":13.18684429,"ECCENTRICITY":0.0001931,"INCLINATION":87.9116,"RA_OF_ASC_NODE":39.775,"ARG_OF_PERICENTER":80.6757,"MEAN_ANOMALY":279.4593,"EPHEMERIS_TYPE":0,"CLASSIFICATION_TYPE":"U","NORAD_CAT_ID":55145,"ELEMENT_SET_NO":999,"REV_AT_EPOCH":12705,"BSTAR":3.108e-5,"MEAN_MOTION_DOT":2.5e-7,"MEAN_MOTION_DDOT":0},{"OBJECT_NAME":"ONEWEB-0565","OBJECT_ID":"2023-004G","EPOCH":"2025-07-28T18:12:03.481632","MEAN_MOTION":13.18686588,"ECCENTRICITY":0.0001441,"INCLINATION":87.9109,"RA_OF_ASC_NODE":39.7886,"ARG_OF_PERICENTER":74.3294,"MEAN_ANOMALY":285.7997,"EPHEMERIS_TYPE":0,"CLASSIFICATION_TYPE":"U","NORAD_CAT_ID":55146,"ELEMENT_SET_NO":999,"REV_AT_EPOCH":12707,"BSTAR":3.132e-5,"MEAN_MOTION_DOT":2.5e-7,"MEAN_MOTION_DDOT":0},{"OBJECT_NAME":"ONEWEB-0567","OBJECT_ID":"2023-004H","EPOCH":"2025-07-28T12:34:46.483968","MEAN_MOTION":13.18686296,"ECCENTRICITY":0.0001694,"INCLINATION":87.9114,"RA_OF_ASC_NODE":39.7926,"ARG_OF_PERICENTER":75.8865,"MEAN_ANOMALY":284.2455,"EPHEMERIS_TYPE":0,"CLASSIFICATION_TYPE":"U","NORAD_CAT_ID":55147,"ELEMENT_SET_NO":999,"REV_AT_EPOCH":12704,"BSTAR":-4.8951e-5,"MEAN_MOTION_DOT":-6.0e-8,"MEAN_MOTION_DDOT":0},{"OBJECT_NAME":"ONEWEB-0569","OBJECT_ID":"2023-004J","EPOCH":"2025-07-28T13:23:36.199104","MEAN_MOTION":13.13469588,"ECCENTRICITY":0.0002095,"INCLINATION":87.8966,"RA_OF_ASC_NODE":24.4965,"ARG_OF_PERICENTER":62.9255,"MEAN_ANOMALY":297.2087,"EPHEMERIS_TYPE":0,"CLASSIFICATION_TYPE":"U","NORAD_CAT_ID":55148,"ELEMENT_SET_NO":999,"REV_AT_EPOCH":12769,"BSTAR":0.00087913,"MEAN_MOTION_DOT":3.34e-6,"MEAN_MOTION_DDOT":0},{"OBJECT_NAME":"ONEWEB-0570","OBJECT_ID":"2023-004K","EPOCH":"2025-07-28T19:37:32.475072","MEAN_MOTION":13.18691058,"ECCENTRICITY":0.0001195,"INCLINATION":87.9111,"RA_OF_ASC_NODE":39.7364,"ARG_OF_PERICENTER":93.2,"MEAN_ANOMALY":266.9269,"EPHEMERIS_TYPE":0,"CLASSIFICATION_TYPE":"U","NORAD_CAT_ID":55149,"ELEMENT_SET_NO":999,"REV_AT_EPOCH":12707,"BSTAR":0.00020846,"MEAN_MOTION_DOT":9.5e-7,"MEAN_MOTION_DDOT":0},{"OBJECT_NAME":"ONEWEB-0571","OBJECT_ID":"2023-004L","EPOCH":"2025-07-28T14:00:16.245504","MEAN_MOTION":13.18686583,"ECCENTRICITY":0.0001655,"INCLINATION":87.9107,"RA_OF_ASC_NODE":39.7895,"ARG_OF_PERICENTER":45.9637,"MEAN_ANOMALY":314.1631,"EPHEMERIS_TYPE":0,"CLASSIFICATION_TYPE":"U","NORAD_CAT_ID":55150,"ELEMENT_SET_NO":999,"REV_AT_EPOCH":12705,"BSTAR":6.7195e-5,"MEAN_MOTION_DOT":3.9e-7,"MEAN_MOTION_DDOT":0},{"OBJECT_NAME":"ONEWEB-0572","OBJECT_ID":"2023-004M","EPOCH":"2025-07-28T13:48:53.788320","MEAN_MOTION":13.1765026,"ECCENTRICITY":0.0001586,"INCLINATION":87.904,"RA_OF_ASC_NODE":70.2764,"ARG_OF_PERICENTER":79.8839,"MEAN_ANOMALY":280.2471,"EPHEMERIS_TYPE":0,"CLASSIFICATION_TYPE":"U","NORAD_CAT_ID":55151,"ELEMENT_SET_NO":999,"REV_AT_EPOCH":12486,"BSTAR":-1.5581e-5,"MEAN_MOTION_DOT":7.0e-8,"MEAN_MOTION_DDOT":0},{"OBJECT_NAME":"ONEWEB-0573","OBJECT_ID":"2023-004N","EPOCH":"2025-07-28T19:18:34.632000","MEAN_MOTION":13.18686624,"ECCENTRICITY":0.0001149,"INCLINATION":87.9105,"RA_OF_ASC_NODE":39.7521,"ARG_OF_PERICENTER":63.2637,"MEAN_ANOMALY":296.8612,"EPHEMERIS_TYPE":0,"CLASSIFICATION_TYPE":"U","NORAD_CAT_ID":55152,"ELEMENT_SET_NO":999,"REV_AT_EPOCH":12707,"BSTAR":0.00012628,"MEAN_MOTION_DOT":6.3e-7,"MEAN_MOTION_DDOT":0},{"OBJECT_NAME":"ONEWEB-0588","OBJECT_ID":"2023-004P","EPOCH":"2025-07-28T13:41:16.985472","MEAN_MOTION":13.1868526,"ECCENTRICITY":0.0001319,"INCLINATION":87.9112,"RA_OF_ASC_NODE":39.7829,"ARG_OF_PERICENTER":87.1034,"MEAN_ANOMALY":273.0249,"EPHEMERIS_TYPE":0,"CLASSIFICATION_TYPE":"U","NORAD_CAT_ID":55153,"ELEMENT_SET_NO":999,"REV_AT_EPOCH":12704,"BSTAR":1.8281e-5,"MEAN_MOTION_DOT":2.0e-7,"MEAN_MOTION_DDOT":0},{"OBJECT_NAME":"ONEWEB-0598","OBJECT_ID":"2023-004Q","EPOCH":"2025-07-28T14:03:20.362176","MEAN_MOTION":13.1141471,"ECCENTRICITY":0.000187,"INCLINATION":87.8806,"RA_OF_ASC_NODE":85.5831,"ARG_OF_PERICENTER":59.3449,"MEAN_ANOMALY":300.7863,"EPHEMERIS_TYPE":0,"CLASSIFICATION_TYPE":"U","NORAD_CAT_ID":55154,"ELEMENT_SET_NO":999,"REV_AT_EPOCH":12348,"BSTAR":0.00025694,"MEAN_MOTION_DOT":1.04e-6,"MEAN_MOTION_DDOT":0},{"OBJECT_NAME":"ONEWEB-0599","OBJECT_ID":"2023-004R","EPOCH":"2025-07-28T20:10:25.324032","MEAN_MOTION":13.17649606,"ECCENTRICITY":0.0001889,"INCLINATION":87.904,"RA_OF_ASC_NODE":70.2279,"ARG_OF_PERICENTER":77.5239,"MEAN_ANOMALY":282.6104,"EPHEMERIS_TYPE":0,"CLASSIFICATION_TYPE":"U","NORAD_CAT_ID":55155,"ELEMENT_SET_NO":999,"REV_AT_EPOCH":12490,"BSTAR":0.00015596,"MEAN_MOTION_DOT":7.3e-7,"MEAN_MOTION_DDOT":0},{"OBJECT_NAME":"ONEWEB-0614","OBJECT_ID":"2023-004S","EPOCH":"2025-07-28T13:56:00.744288","MEAN_MOTION":13.11414656,"ECCENTRICITY":0.0001536,"INCLINATION":87.8808,"RA_OF_ASC_NODE":85.5936,"ARG_OF_PERICENTER":87.9606,"MEAN_ANOMALY":272.1698,"EPHEMERIS_TYPE":0,"CLASSIFICATION_TYPE":"U","NORAD_CAT_ID":55156,"ELEMENT_SET_NO":999,"REV_AT_EPOCH":12342,"BSTAR":0.00093738,"MEAN_MOTION_DOT":3.45e-6,"MEAN_MOTION_DDOT":0},{"OBJECT_NAME":"ONEWEB-0616","OBJECT_ID":"2023-004T","EPOCH":"2025-07-28T13:53:46.293792","MEAN_MOTION":13.17649973,"ECCENTRICITY":0.0002834,"INCLINATION":87.9039,"RA_OF_ASC_NODE":70.2708,"ARG_OF_PERICENTER":80.4925,"MEAN_ANOMALY":279.6527,"EPHEMERIS_TYPE":0,"CLASSIFICATION_TYPE":"U","NORAD_CAT_ID":55157,"ELEMENT_SET_NO":999,"REV_AT_EPOCH":12508,"BSTAR":5.1504e-5,"MEAN_MOTION_DOT":3.3e-7,"MEAN_MOTION_DDOT":0},{"OBJECT_NAME":"ONEWEB-0617","OBJECT_ID":"2023-004U","EPOCH":"2025-07-28T13:38:55.526208","MEAN_MOTION":13.11416225,"ECCENTRICITY":0.0001411,"INCLINATION":87.8805,"RA_OF_ASC_NODE":85.5751,"ARG_OF_PERICENTER":80.3053,"MEAN_ANOMALY":279.8234,"EPHEMERIS_TYPE":0,"CLASSIFICATION_TYPE":"U","NORAD_CAT_ID":55158,"ELEMENT_SET_NO":999,"REV_AT_EPOCH":12344,"BSTAR":0.0015553,"MEAN_MOTION_DOT":5.64e-6,"MEAN_MOTION_DDOT":0},{"OBJECT_NAME":"ONEWEB-0618","OBJECT_ID":"2023-004V","EPOCH":"2025-07-28T18:24:31.271040","MEAN_MOTION":14.67560466,"ECCENTRICITY":0.0016014,"INCLINATION":86.9114,"RA_OF_ASC_NODE":307.1674,"ARG_OF_PERICENTER":47.9761,"MEAN_ANOMALY":312.2814,"EPHEMERIS_TYPE":0,"CLASSIFICATION_TYPE":"U","NORAD_CAT_ID":55159,"ELEMENT_SET_NO":999,"REV_AT_EPOCH":13366,"BSTAR":0.00017007,"MEAN_MOTION_DOT":9.89e-6,"MEAN_MOTION_DDOT":0},{"OBJECT_NAME":"ONEWEB-0619","OBJECT_ID":"2023-004W","EPOCH":"2025-07-28T14:39:55.902816","MEAN_MOTION":13.17648223,"ECCENTRICITY":0.0001964,"INCLINATION":87.9033,"RA_OF_ASC_NODE":70.2412,"ARG_OF_PERICENTER":97.758,"MEAN_ANOMALY":262.3774,"EPHEMERIS_TYPE":0,"CLASSIFICATION_TYPE":"U","NORAD_CAT_ID":55160,"ELEMENT_SET_NO":999,"REV_AT_EPOCH":12498,"BSTAR":0.00019956,"MEAN_MOTION_DOT":9.0e-7,"MEAN_MOTION_DDOT":0},{"OBJECT_NAME":"ONEWEB-0620","OBJECT_ID":"2023-004X","EPOCH":"2025-07-28T15:21:28.599840","MEAN_MOTION":13.11418501,"ECCENTRICITY":0.0001639,"INCLINATION":87.8807,"RA_OF_ASC_NODE":85.582,"ARG_OF_PERICENTER":72.1071,"MEAN_ANOMALY":288.0235,"EPHEMERIS_TYPE":0,"CLASSIFICATION_TYPE":"U","NORAD_CAT_ID":55161,"ELEMENT_SET_NO":999,"REV_AT_EPOCH":12342,"BSTAR":0.0015446,"MEAN_MOTION_DOT":5.6e-6,"MEAN_MOTION_DDOT":0},{"OBJECT_NAME":"ONEWEB-0621","OBJECT_ID":"2023-004Y","EPOCH":"2025-07-28T14:10:39.547200","MEAN_MOTION":13.11413618,"ECCENTRICITY":0.0001721,"INCLINATION":87.8809,"RA_OF_ASC_NODE":85.5479,"ARG_OF_PERICENTER":87.4991,"MEAN_ANOMALY":272.6334,"EPHEMERIS_TYPE":0,"CLASSIFICATION_TYPE":"U","NORAD_CAT_ID":55162,"ELEMENT_SET_NO":999,"REV_AT_EPOCH":12339,"BSTAR":-0.00035163,"MEAN_MOTION_DOT":-1.12e-6,"MEAN_MOTION_DDOT":0},{"OBJECT_NAME":"ONEWEB-0622","OBJECT_ID":"2023-004Z","EPOCH":"2025-07-28T14:17:58.794432","MEAN_MOTION":13.11415255,"ECCENTRICITY":0.0001016,"INCLINATION":87.8805,"RA_OF_ASC_NODE":85.5704,"ARG_OF_PERICENTER":91.6345,"MEAN_ANOMALY":268.49,"EPHEMERIS_TYPE":0,"CLASSIFICATION_TYPE":"U","NORAD_CAT_ID":55163,"ELEMENT_SET_NO":999,"REV_AT_EPOCH":12338,"BSTAR":-0.00095857,"MEAN_MOTION_DOT":-3.27e-6,"MEAN_MOTION_DDOT":0},{"OBJECT_NAME":"ONEWEB-0623","OBJECT_ID":"2023-004AA","EPOCH":"2025-07-28T21:50:02.678208","MEAN_MOTION":13.17649977,"ECCENTRICITY":0.0001404,"INCLINATION":87.9036,"RA_OF_ASC_NODE":70.238,"ARG_OF_PERICENTER":107.8484,"MEAN_ANOMALY":252.2801,"EPHEMERIS_TYPE":0,"CLASSIFICATION_TYPE":"U","NORAD_CAT_ID":55164,"ELEMENT_SET_NO":999,"REV_AT_EPOCH":12501,"BSTAR":0.0002059,"MEAN_MOTION_DOT":9.3e-7,"MEAN_MOTION_DDOT":0},{"OBJECT_NAME":"ONEWEB-0624","OBJECT_ID":"2023-004AB","EPOCH":"2025-07-28T20:08:28.659840","MEAN_MOTION":13.12943046,"ECCENTRICITY":0.000174,"INCLINATION":87.8853,"RA_OF_ASC_NODE":54.9379,"ARG_OF_PERICENTER":87.9388,"MEAN_ANOMALY":272.194,"EPHEMERIS_TYPE":0,"CLASSIFICATION_TYPE":"U","NORAD_CAT_ID":55165,"ELEMENT_SET_NO":999,"REV_AT_EPOCH":12564,"BSTAR":-0.00054791,"MEAN_MOTION_DOT":-1.86e-6,"MEAN_MOTION_DDOT":0},{"OBJECT_NAME":"ONEWEB-0625","OBJECT_ID":"2023-004AC","EPOCH":"2025-07-28T21:35:27.161088","MEAN_MOTION":13.17647948,"ECCENTRICITY":0.0001947,"INCLINATION":87.9036,"RA_OF_ASC_NODE":70.2371,"ARG_OF_PERICENTER":82.5916,"MEAN_ANOMALY":277.5437,"EPHEMERIS_TYPE":0,"CLASSIFICATION_TYPE":"U","NORAD_CAT_ID":55166,"ELEMENT_SET_NO":999,"REV_AT_EPOCH":12500,"BSTAR":0.00014738,"MEAN_MOTION_DOT":7.0e-7,"MEAN_MOTION_DDOT":0},{"OBJECT_NAME":"ONEWEB-0626","OBJECT_ID":"2023-004AD","EPOCH":"2025-07-28T21:20:52.244448","MEAN_MOTION":13.17650353,"ECCENTRICITY":0.0001739,"INCLINATION":87.9037,"RA_OF_ASC_NODE":70.2376,"ARG_OF_PERICENTER":64.4652,"MEAN_ANOMALY":295.6659,"EPHEMERIS_TYPE":0,"CLASSIFICATION_TYPE":"U","NORAD_CAT_ID":55167,"ELEMENT_SET_NO":999,"REV_AT_EPOCH":12500,"BSTAR":-8.3163e-5,"MEAN_MOTION_DOT":-1.9e-7,"MEAN_MOTION_DDOT":0},{"OBJECT_NAME":"ONEWEB-0627","OBJECT_ID":"2023-004AE","EPOCH":"2025-07-28T13:46:29.400096","MEAN_MOTION":13.17648378,"ECCENTRICITY":0.0001316,"INCLINATION":87.9035,"RA_OF_ASC_NODE":70.3024,"ARG_OF_PERICENTER":98.4571,"MEAN_ANOMALY":261.671,"EPHEMERIS_TYPE":0,"CLASSIFICATION_TYPE":"U","NORAD_CAT_ID":55168,"ELEMENT_SET_NO":999,"REV_AT_EPOCH":12496,"BSTAR":9.3063e-5,"MEAN_MOTION_DOT":4.9e-7,"MEAN_MOTION_DDOT":0}]
